EVENT_NAME: 199911121657
EVENT_ID: 997
EVENT_DATE_YYYYMMDD: 1999/11/12
EVENT_TIME_HHMMSS: 16:57:21.41
EVENT_LATITUDE_DEGREE: 40.806
EVENT_LONGITUDE_DEGREE: 31.187
EVENT_DEPTH_KM: 11.0
HYPOCENTER_REFERENCE: AFAD
MAGNITUDE_W: 
MAGNITUDE_W_REFERENCE: 
MAGNITUDE_L: 
MAGNITUDE_L_REFERENCE: 
FOCAL_MECHANISM: 
NETWORK: TK
STATION_CODE: 1401
STATION_NAME: 
STATION_LATITUDE_DEGREE: 40.74567
STATION_LONGITUDE_DEGREE: 31.60732
STATION_ELEVATION_M: 746.0
LOCATION: BOLU_MERKEZ_BAYINDIRLIK_VE_ISKAN_MUDURLUGU
SENSOR_DEPTH_M: 
VS30_M/S: 294
SITE_CLASSIFICATION_EC8: C
MORPHOLOGIC_CLASSIFICATION: 
EPICENTRAL_DISTANCE_KM: 36.02
EARTHQUAKE_BACKAZIMUTH_DEGREE: 
DATE_TIME_FIRST_SAMPLE_YYYYMMDD_HHMMSS: 12/11/1999 16:57:22.00000
DATE_TIME_FIRST_SAMPLE_PRECISION: millisecond
SAMPLING_INTERVAL_S: 0.01
NDATA: 5590
DURATION_S: 
STREAM: HNN
UNITS: cm/s^2
INSTRUMENT: sensor = GSR-18 | digitizer = 
INSTRUMENT_ANALOG/DIGITAL: 
INSTRUMENTAL_FREQUENCY_HZ: 
INSTRUMENTAL_DAMPING: 
FULL_SCALE_G: 
N_BIT_DIGITAL_CONVERTER: 
PGA_CM/S^2: 739.512
TIME_PGA_S: 
BASELINE_CORRECTION: BASELINE REMOVED
FILTER_TYPE: BUTTERWORTH
FILTER_ORDER: 
LOW_CUT_FREQUENCY_HZ: 
HIGH_CUT_FREQUENCY_HZ: 
LATE/NORMAL_TRIGGERED: 
DATABASE_VERSION: 
HEADER_FORMAT: DYNA 1.2
DATA_TYPE: Acceleration
PROCESSING: Manual Paolucci et al., 2011
DATA_TIMESTAMP_YYYYMMDD_HHMMSS: 
DATA_LICENSE: U (unknown license)
DATA_CITATION: Turkish Accelerometric Archive v 1.0 - Disaster And Emergency Management Presidency, Earthquake Department
DATA_CREATOR: AFAD
ORIGINAL_DATA_MEDIATOR_CITATION: : AFAD - Disaster And Emergency Management Presidency
ORIGINAL_DATA_MEDIATOR: AFAD PROCESS SERVICE
ORIGINAL_DATA_CREATOR_CITATION: AFAD PROCESS SERVICE
ORIGINAL_DATA_CREATOR: network: TK
USER1: GuestUser
USER2: 
USER3: 
USER4: 
USER5: 
-0.001000
-0.004000
0.039000
-0.005000
0.033000
-0.057000
0.040000
0.012000
0.022000
-0.012000
0.010000
0.024000
0.037000
-0.018000
0.008000
-0.004000
0.038000
-0.008000
0.024000
-0.026000
0.021000
0.001000
0.003000
0.011000
0.015000
-7.786000
0.122000
-0.088000
0.082000
-0.076000
0.093000
-0.118000
0.084000
-0.079000
0.085000
-0.090000
0.085000
-0.101000
0.128000
-0.101000
0.134000
-0.082000
0.105000
-0.108000
0.149000
-0.096000
0.144000
-0.113000
0.097000
-0.135000
0.148000
-0.104000
0.120000
-0.064000
0.092000
-0.090000
-0.010000
0.028000
0.004000
0.021000
-0.021000
-0.024000
0.015000
0.045000
-0.011000
0.058000
-0.011000
0.009000
-0.010000
0.041000
-0.034000
0.029000
-0.035000
0.040000
-0.014000
0.029000
-0.015000
0.019000
-0.048000
0.044000
-0.018000
0.041000
-0.002000
0.003000
-0.034000
-0.001000
-0.122000
0.091000
-0.072000
0.100000
-0.079000
0.103000
-0.081000
0.106000
-0.105000
0.100000
-0.118000
0.104000
-0.075000
0.109000
-0.104000
0.139000
-0.067000
0.073000
-0.097000
0.129000
-0.091000
0.112000
-0.105000
0.092000
-0.072000
0.104000
-0.082000
0.113000
-0.138000
0.125000
-0.087000
0.100000
0.037000
-0.020000
0.052000
-0.031000
0.070000
-0.029000
0.014000
-0.019000
0.034000
-0.030000
0.042000
0.006000
0.054000
-0.038000
0.032000
-0.025000
0.022000
-0.028000
0.073000
-0.040000
0.018000
0.003000
0.069000
-0.010000
0.035000
-0.079000
0.099000
-0.041000
0.042000
-0.024000
0.102000
-0.100000
0.112000
-0.067000
0.089000
-0.100000
0.100000
-0.089000
0.162000
-0.108000
0.116000
-0.117000
0.113000
-0.085000
0.124000
-0.111000
0.120000
-0.113000
0.110000
-0.055000
0.112000
-0.110000
0.114000
-0.116000
0.090000
-0.076000
0.102000
-0.070000
0.093000
-0.102000
-0.072000
0.059000
-0.037000
0.034000
-0.041000
0.042000
-0.062000
0.080000
-0.044000
0.033000
-0.057000
0.055000
-0.025000
0.021000
-0.061000
0.034000
-0.041000
0.031000
-0.013000
0.021000
-0.025000
0.031000
-0.035000
0.041000
-0.017000
0.030000
-0.062000
0.057000
-0.048000
0.061000
-0.034000
0.084000
-0.099000
0.106000
-0.100000
0.118000
-0.100000
0.083000
-0.072000
0.114000
-0.102000
0.120000
-0.085000
0.072000
-0.107000
0.088000
-0.072000
0.105000
-0.133000
0.121000
-0.090000
0.096000
-0.116000
0.089000
-0.095000
0.073000
-0.083000
0.098000
-0.130000
0.118000
-0.089000
-0.033000
0.056000
-0.033000
0.063000
-0.039000
0.070000
-0.037000
0.050000
-0.068000
0.062000
-0.021000
0.049000
-0.037000
0.079000
-0.039000
0.071000
-0.067000
0.079000
-0.122000
0.047000
-0.050000
0.071000
-0.068000
0.096000
-0.067000
0.036000
-0.064000
0.053000
-0.089000
0.035000
-0.074000
0.096000
-0.102000
0.089000
-0.076000
0.085000
-0.116000
0.064000
-0.108000
0.106000
-0.105000
0.085000
-0.093000
0.083000
-0.138000
0.090000
-0.073000
0.079000
-0.113000
0.102000
-0.114000
0.118000
-0.097000
0.055000
-0.093000
0.078000
-0.054000
0.092000
-0.069000
0.072000
-0.062000
-0.028000
0.087000
-0.074000
0.042000
-0.039000
0.078000
-0.086000
0.076000
-0.080000
0.064000
-0.031000
0.072000
-0.058000
0.043000
-0.067000
0.048000
-0.104000
0.080000
-0.054000
0.055000
-0.034000
0.024000
-0.111000
0.096000
-0.054000
0.087000
-0.084000
0.047000
-0.043000
0.058000
-0.076000
0.096000
-0.110000
0.083000
-0.103000
0.112000
-0.115000
0.111000
-0.093000
0.089000
-0.096000
0.070000
-0.081000
0.077000
-0.100000
0.077000
-0.050000
0.098000
-0.086000
0.099000
-0.103000
0.122000
-0.127000
0.104000
-0.121000
0.057000
-0.072000
0.111000
-0.076000
0.071000
-0.092000
0.097000
0.058000
-0.075000
0.088000
-0.062000
0.068000
-0.067000
0.066000
-0.115000
0.075000
-0.051000
0.089000
-0.074000
0.057000
-0.065000
0.033000
-0.052000
0.072000
-0.062000
0.080000
-0.071000
0.052000
-0.057000
0.074000
-0.092000
0.076000
-0.084000
0.066000
-0.041000
0.072000
-0.102000
0.097000
-0.069000
0.110000
-0.087000
0.081000
-0.053000
0.055000
-0.072000
0.078000
-0.048000
0.091000
-0.124000
0.089000
-0.087000
0.083000
-0.079000
0.085000
-0.066000
0.059000
-0.078000
0.062000
-0.089000
0.082000
-0.080000
0.087000
-0.067000
0.065000
-0.092000
0.101000
-0.094000
0.062000
0.051000
-0.033000
0.062000
-0.068000
0.067000
-0.067000
0.078000
-0.041000
0.071000
-0.067000
0.074000
-0.080000
0.059000
-0.054000
0.067000
-0.061000
0.048000
-0.078000
0.084000
-0.025000
0.044000
-0.086000
0.088000
-0.055000
0.066000
-0.041000
0.092000
-0.040000
0.072000
-0.077000
0.063000
-0.097000
0.075000
-0.070000
0.070000
-0.058000
0.065000
-0.095000
0.098000
-0.094000
0.065000
-0.039000
0.053000
-0.084000
0.058000
-0.080000
0.086000
-0.065000
0.045000
-0.080000
0.084000
-0.112000
0.083000
-0.028000
0.082000
-0.055000
0.101000
-0.087000
0.077000
-0.098000
0.114000
0.062000
-0.064000
0.074000
-0.088000
0.078000
-0.089000
0.080000
-0.077000
0.061000
-0.030000
0.029000
-0.070000
0.079000
-0.092000
0.134000
-0.070000
0.067000
-0.056000
0.130000
-0.033000
0.134000
0.016000
0.139000
0.024000
0.172000
0.118000
0.228000
0.151000
0.068000
-0.081000
0.150000
-0.017000
0.111000
-0.048000
-0.052000
0.360000
1.984000
2.572000
2.927000
3.747000
4.332000
3.258000
2.573000
-0.062000
-3.025000
-4.668000
-3.756000
-2.326000
-1.279000
2.156000
4.854000
2.029000
4.009000
3.644000
0.404000
-4.244000
-10.263000
-13.242000
-12.812000
-11.525000
-9.684000
-8.778000
-5.984000
0.406000
5.031000
6.516000
6.893000
2.627000
-12.401000
-22.890000
-20.226000
-17.960000
-23.965000
-13.304000
-2.718000
8.873000
30.054000
30.031000
1.813000
-16.036000
-27.512000
-34.004000
-29.884000
-19.411000
-13.608000
-7.261000
1.743000
11.009000
21.243000
12.596000
-12.189000
-23.359000
-23.942000
-22.907000
-17.764000
1.820000
9.524000
-2.344000
-3.801000
14.879000
27.130000
29.970000
36.267000
24.699000
9.470000
0.989000
-9.101000
-27.771000
-41.859000
-40.917000
-25.095000
9.403000
37.154000
48.995000
50.285000
63.785000
60.492000
24.290000
0.790000
-9.873000
-20.800000
-18.899000
-15.075000
-22.222000
-25.911000
-14.017000
-9.026000
5.637000
7.717000
-7.991000
-14.986000
-17.122000
-17.529000
-12.862000
-18.862000
-22.557000
-8.095000
12.723000
36.160000
47.683000
47.732000
59.425000
63.477000
38.324000
9.903000
-11.790000
-24.331000
-32.642000
-40.021000
-35.432000
-24.379000
-8.470000
17.111000
27.482000
40.067000
46.166000
38.962000
23.561000
28.480000
29.516000
9.250000
8.233000
13.165000
12.847000
25.355000
28.020000
18.767000
19.451000
18.448000
9.614000
19.843000
26.485000
11.965000
4.642000
9.171000
1.039000
-2.723000
0.929000
-8.792000
-13.092000
-5.936000
-14.261000
-18.674000
-16.197000
-19.540000
-29.513000
-25.236000
-20.936000
-19.488000
-9.151000
4.529000
5.393000
13.808000
17.826000
5.850000
7.062000
15.716000
20.725000
24.582000
30.281000
35.421000
39.253000
28.412000
6.506000
-11.181000
-23.014000
-36.364000
-44.602000
-47.001000
-40.695000
-22.407000
-5.369000
14.297000
24.604000
26.513000
34.708000
36.506000
17.336000
-2.459000
-6.662000
-11.250000
-8.371000
5.970000
12.767000
14.941000
28.498000
29.927000
28.487000
35.947000
19.531000
-1.493000
-2.608000
-7.384000
-19.729000
-27.522000
-38.355000
-53.011000
-56.055000
-56.101000
-43.460000
-22.635000
-2.869000
19.665000
30.802000
30.291000
29.881000
25.520000
9.462000
-0.039000
-8.820000
-13.439000
-9.545000
-4.277000
2.434000
8.442000
9.762000
9.378000
11.722000
6.740000
1.688000
5.352000
6.845000
14.236000
21.926000
28.378000
27.050000
28.118000
32.509000
24.970000
9.157000
-0.253000
-21.656000
-43.563000
-42.959000
-50.768000
-56.035000
-47.783000
-46.725000
-42.448000
-18.770000
14.234000
27.203000
26.877000
29.233000
24.185000
19.078000
14.760000
-0.110000
-8.750000
-12.787000
-19.431000
-26.316000
-25.618000
-20.854000
-17.387000
1.898000
21.132000
20.616000
13.896000
21.577000
17.724000
10.176000
13.161000
-1.616000
-13.840000
-8.823000
-11.037000
-20.071000
-14.157000
-19.627000
-24.650000
-14.400000
9.122000
14.651000
14.744000
38.827000
45.262000
41.017000
50.784000
47.697000
37.442000
38.279000
37.578000
24.060000
6.759000
-4.359000
-20.171000
-23.456000
-21.881000
-28.060000
-12.006000
6.564000
12.256000
38.210000
49.692000
18.623000
8.550000
-0.414000
-15.428000
-13.026000
-10.508000
-15.091000
-10.032000
-7.176000
-22.676000
-18.158000
-13.765000
-31.897000
-22.605000
-10.297000
-15.794000
-16.414000
-16.885000
-20.117000
-23.605000
-27.913000
-27.279000
-23.957000
-27.233000
-18.370000
-14.635000
-19.654000
-10.109000
3.723000
4.007000
5.272000
-11.496000
-39.791000
-39.888000
-32.297000
-24.293000
-14.980000
-1.183000
-0.961000
8.749000
17.069000
11.466000
-5.455000
-9.255000
-4.024000
5.432000
10.829000
7.924000
8.246000
-0.103000
-1.991000
-0.729000
-3.490000
-4.049000
3.609000
-5.032000
-19.524000
-22.259000
-36.366000
-52.791000
-50.280000
-58.125000
-57.158000
-37.964000
-32.723000
-17.665000
5.841000
38.533000
23.735000
36.570000
52.407000
28.114000
3.361000
-12.988000
-26.910000
-26.770000
-14.935000
-5.819000
-16.139000
-25.960000
-25.932000
-46.935000
-63.717000
-70.497000
-89.814000
-103.552000
-96.747000
-104.550000
-123.902000
-128.577000
-130.748000
-124.225000
-125.268000
-118.323000
-119.204000
-130.783000
-123.222000
-124.507000
-139.824000
-153.914000
-166.235000
-183.314000
-193.110000
-196.678000
-209.281000
-219.541000
-222.824000
-231.352000
-236.659000
-240.768000
-247.334000
-241.623000
-208.543000
-160.929000
-94.818000
-14.067000
18.795000
25.314000
76.978000
112.016000
131.036000
166.754000
184.955000
181.830000
195.139000
238.299000
264.310000
264.228000
268.397000
287.404000
265.112000
226.016000
220.697000
183.105000
134.062000
110.090000
69.247000
41.647000
54.850000
30.247000
0.296000
-12.199000
-24.020000
-22.061000
8.168000
41.490000
95.815000
183.409000
254.074000
274.678000
292.315000
334.237000
335.370000
303.974000
298.491000
298.598000
283.858000
272.260000
265.303000
231.968000
197.383000
173.711000
144.141000
121.652000
95.599000
74.750000
73.404000
74.814000
67.399000
68.396000
61.805000
52.377000
35.168000
13.791000
9.239000
-7.779000
-28.018000
-47.348000
-80.240000
-126.716000
-168.923000
-206.049000
-251.685000
-279.285000
-293.697000
-306.236000
-305.462000
-283.948000
-270.468000
-250.681000
-219.900000
-155.406000
-127.844000
-144.531000
-128.813000
-106.703000
-129.987000
-150.476000
-152.087000
-125.561000
-80.296000
-39.431000
-17.596000
-17.553000
-24.970000
-31.606000
-33.909000
-20.934000
26.969000
102.637000
179.767000
258.341000
324.641000
372.960000
393.337000
370.172000
346.430000
340.575000
313.767000
290.722000
259.112000
265.488000
261.658000
231.345000
203.676000
183.564000
166.675000
138.545000
112.594000
80.633000
20.429000
-29.335000
-59.809000
-112.189000
-189.948000
-241.903000
-290.592000
-347.167000
-388.196000
-419.851000
-458.844000
-485.243000
-492.682000
-498.625000
-502.131000
-484.817000
-429.615000
-326.566000
-149.281000
-32.113000
250.347000
412.590000
367.086000
290.348000
368.313000
516.167000
648.419000
739.512000
720.603000
577.138000
421.826000
343.776000
297.786000
237.710000
84.096000
-81.578000
-248.727000
-382.391000
-368.857000
-295.123000
-305.864000
-374.072000
-383.344000
-333.816000
-285.014000
-263.054000
-234.574000
-205.073000
-161.196000
-91.370000
-59.237000
-20.865000
19.866000
88.020000
137.921000
126.911000
75.387000
1.644000
-107.108000
-221.224000
-293.052000
-321.515000
-339.588000
-373.892000
-398.861000
-404.685000
-404.624000
-409.833000
-415.761000
-426.720000
-436.536000
-422.806000
-379.817000
-319.026000
-254.045000
-196.365000
-133.586000
-70.012000
-25.580000
-2.312000
9.435000
38.356000
66.865000
116.692000
214.069000
317.929000
393.106000
420.252000
383.318000
341.487000
340.802000
357.270000
377.340000
401.310000
372.591000
273.410000
181.940000
117.286000
54.744000
-9.925000
-49.216000
-57.367000
-76.945000
-69.397000
-17.314000
44.361000
83.448000
79.817000
32.052000
9.039000
8.827000
2.850000
-16.950000
-48.917000
-107.537000
-166.819000
-188.651000
-185.341000
-179.417000
-176.354000
-177.585000
-167.410000
-151.415000
-136.403000
-106.798000
-69.522000
-35.365000
0.184000
27.859000
28.743000
19.223000
14.673000
4.201000
-17.978000
-45.324000
-72.066000
-97.823000
-125.431000
-145.627000
-154.020000
-149.027000
-146.585000
-131.960000
-85.332000
-1.612000
96.780000
177.087000
247.300000
296.574000
331.994000
380.639000
427.145000
431.417000
414.995000
401.914000
386.911000
375.606000
364.428000
346.860000
296.254000
218.341000
115.718000
-1.237000
-101.190000
-160.701000
-178.378000
-185.031000
-211.420000
-253.073000
-248.425000
-199.333000
-165.293000
-156.624000
-146.353000
-138.099000
-135.509000
-132.246000
-127.473000
-135.847000
-151.188000
-153.386000
-157.355000
-171.335000
-184.927000
-186.101000
-185.931000
-186.673000
-160.626000
-120.877000
-79.712000
-25.308000
40.349000
74.172000
88.431000
119.108000
156.491000
164.226000
155.358000
148.085000
137.264000
137.078000
133.423000
113.419000
107.256000
116.505000
124.265000
102.083000
84.717000
79.046000
67.852000
60.602000
45.047000
21.126000
24.028000
28.207000
10.043000
-3.747000
-12.316000
-35.563000
-64.105000
-79.197000
-94.171000
-116.145000
-127.872000
-128.001000
-123.769000
-117.275000
-87.377000
-37.158000
9.774000
59.029000
99.003000
107.501000
101.637000
94.221000
89.121000
70.126000
42.895000
11.551000
-27.630000
-65.592000
-85.799000
-110.515000
-135.460000
-150.114000
-158.513000
-155.864000
-140.182000
-113.873000
-78.725000
-27.452000
36.736000
86.674000
108.212000
131.702000
169.008000
182.616000
174.463000
168.604000
151.591000
116.725000
71.272000
32.792000
7.212000
-4.437000
-24.002000
-36.048000
-33.889000
-28.347000
-11.175000
28.250000
60.906000
70.524000
69.219000
70.008000
75.529000
87.060000
86.650000
70.569000
57.129000
66.841000
80.363000
75.629000
80.290000
81.935000
81.865000
101.858000
124.444000
127.448000
122.113000
124.438000
123.086000
108.215000
79.550000
65.631000
51.244000
36.505000
7.053000
-23.715000
-47.928000
-62.292000
-76.264000
-91.274000
-107.004000
-110.137000
-109.155000
-84.840000
-86.531000
-68.816000
-37.343000
-48.288000
-27.018000
6.832000
34.469000
67.884000
98.511000
131.079000
153.803000
164.012000
168.337000
152.580000
139.194000
119.314000
89.120000
57.378000
42.989000
16.995000
-5.070000
-21.904000
-25.864000
-37.153000
-57.241000
-52.803000
-46.882000
-60.705000
-68.182000
-64.843000
-74.081000
-87.739000
-88.661000
-91.533000
-85.293000
-46.222000
-25.877000
-9.108000
30.086000
55.168000
87.266000
108.547000
103.614000
100.570000
122.082000
129.346000
123.600000
107.960000
91.425000
72.407000
51.150000
41.450000
41.240000
33.450000
9.447000
22.571000
41.547000
30.712000
22.777000
27.900000
24.442000
21.679000
20.664000
3.927000
-19.932000
-35.818000
-47.946000
-68.200000
-94.352000
-106.168000
-110.899000
-110.951000
-100.589000
-89.006000
-74.641000
-49.444000
-22.810000
-11.829000
-18.613000
-18.967000
-7.891000
-7.875000
-24.537000
-32.753000
-28.298000
-14.497000
14.606000
49.728000
87.556000
127.428000
150.658000
163.406000
179.317000
182.452000
165.783000
129.000000
79.812000
19.272000
-44.404000
-72.603000
-86.740000
-101.892000
-117.513000
-144.103000
-153.787000
-134.936000
-119.811000
-119.715000
-115.477000
-95.662000
-70.185000
-57.296000
-48.839000
-54.547000
-59.982000
-64.285000
-73.585000
-85.933000
-102.889000
-106.102000
-98.186000
-95.844000
-96.120000
-87.549000
-77.573000
-64.288000
-62.005000
-65.908000
-67.324000
-60.777000
-63.108000
-68.069000
-70.545000
-74.159000
-81.562000
-81.251000
-69.446000
-58.636000
-46.608000
-24.332000
2.051000
16.532000
41.173000
63.848000
81.567000
91.648000
95.789000
95.865000
90.810000
78.490000
61.720000
48.121000
41.332000
38.106000
35.781000
44.422000
61.792000
75.873000
87.978000
105.752000
117.366000
123.180000
133.681000
144.060000
149.734000
149.294000
145.171000
139.908000
130.745000
121.297000
114.989000
105.639000
100.898000
98.859000
98.570000
88.840000
78.889000
77.697000
78.040000
71.599000
62.702000
51.203000
32.769000
12.936000
-3.308000
-20.128000
-42.514000
-63.420000
-80.228000
-90.995000
-96.408000
-97.669000
-93.678000
-80.695000
-61.172000
-42.572000
-23.727000
-3.184000
19.433000
38.690000
54.033000
69.696000
78.045000
91.158000
89.878000
75.149000
65.555000
64.776000
54.097000
42.141000
39.742000
38.721000
35.944000
41.612000
49.396000
58.326000
68.811000
70.225000
68.704000
69.717000
70.108000
66.281000
59.356000
51.996000
37.720000
19.945000
6.587000
-3.073000
-15.253000
-32.791000
-43.315000
-52.269000
-58.854000
-70.428000
-81.777000
-91.817000
-99.256000
-109.972000
-116.649000
-119.103000
-124.658000
-126.567000
-118.804000
-108.701000
-106.442000
-107.762000
-107.592000
-111.170000
-115.087000
-115.129000
-113.456000
-108.510000
-94.052000
-70.453000
-46.611000
-22.368000
2.945000
22.839000
36.311000
44.819000
48.005000
46.096000
44.484000
38.624000
28.418000
17.728000
10.226000
6.330000
0.273000
-7.037000
-7.074000
-4.465000
-7.120000
-8.078000
-4.623000
3.282000
13.759000
19.325000
19.335000
20.132000
18.927000
9.821000
0.616000
-3.885000
-8.990000
-18.599000
-26.791000
-35.251000
-47.374000
-57.301000
-63.361000
-76.936000
-97.084000
-109.393000
-113.230000
-122.706000
-132.509000
-136.522000
-134.548000
-129.024000
-120.757000
-107.521000
-93.216000
-78.750000
-64.340000
-54.997000
-45.100000
-32.249000
-24.416000
-20.429000
-12.536000
-5.463000
-3.598000
-3.532000
-6.546000
-6.848000
-3.458000
-5.179000
-4.613000
5.025000
10.499000
7.729000
6.844000
12.098000
14.424000
15.576000
14.528000
12.765000
9.866000
5.091000
-3.941000
-19.722000
-38.226000
-53.305000
-68.348000
-87.673000
-96.234000
-94.865000
-97.533000
-96.273000
-83.500000
-69.578000
-57.759000
-40.948000
-21.015000
-6.889000
3.103000
14.694000
27.048000
35.505000
44.345000
53.466000
52.339000
46.384000
43.907000
37.491000
28.645000
25.430000
27.714000
23.903000
20.819000
26.305000
29.057000
28.155000
28.117000
21.515000
8.617000
-5.846000
-21.589000
-37.352000
-47.953000
-59.172000
-69.456000
-75.272000
-79.537000
-84.502000
-89.284000
-89.672000
-89.184000
-89.748000
-85.719000
-78.504000
-70.259000
-57.137000
-41.237000
-34.019000
-18.898000
-0.785000
18.829000
32.913000
48.585000
66.879000
81.569000
95.873000
110.411000
121.727000
132.748000
144.547000
150.136000
145.248000
133.125000
113.999000
89.989000
60.732000
23.655000
-17.263000
-50.707000
-65.727000
-78.480000
-98.891000
-112.661000
