EVENT_NAME: 199911121657
EVENT_ID: 997
EVENT_DATE_YYYYMMDD: 1999/11/12
EVENT_TIME_HHMMSS: 16:57:21.41
EVENT_LATITUDE_DEGREE: 40.806
EVENT_LONGITUDE_DEGREE: 31.187
EVENT_DEPTH_KM: 11.0
HYPOCENTER_REFERENCE: AFAD
MAGNITUDE_W: 
MAGNITUDE_W_REFERENCE: 
MAGNITUDE_L: 
MAGNITUDE_L_REFERENCE: 
FOCAL_MECHANISM: 
NETWORK: TK
STATION_CODE: 1401
STATION_NAME: 
STATION_LATITUDE_DEGREE: 40.74567
STATION_LONGITUDE_DEGREE: 31.60732
STATION_ELEVATION_M: 746.0
LOCATION: BOLU_MERKEZ_BAYINDIRLIK_VE_ISKAN_MUDURLUGU
SENSOR_DEPTH_M: 
VS30_M/S: 294
SITE_CLASSIFICATION_EC8: C
MORPHOLOGIC_CLASSIFICATION: 
EPICENTRAL_DISTANCE_KM: 36.02
EARTHQUAKE_BACKAZIMUTH_DEGREE: 
DATE_TIME_FIRST_SAMPLE_YYYYMMDD_HHMMSS: 12/11/1999 16:57:22.00000
DATE_TIME_FIRST_SAMPLE_PRECISION: millisecond
SAMPLING_INTERVAL_S: 0.01
NDATA: 5590
DURATION_S: 
STREAM: HNE
UNITS: cm/s^2
INSTRUMENT: sensor = GSR-18 | digitizer = 
INSTRUMENT_ANALOG/DIGITAL: 
INSTRUMENTAL_FREQUENCY_HZ: 
INSTRUMENTAL_DAMPING: 
FULL_SCALE_G: 
N_BIT_DIGITAL_CONVERTER: 
PGA_CM/S^2: 805.878
TIME_PGA_S: 
BASELINE_CORRECTION: BASELINE REMOVED
FILTER_TYPE: BUTTERWORTH
FILTER_ORDER: 
LOW_CUT_FREQUENCY_HZ: 
HIGH_CUT_FREQUENCY_HZ: 
LATE/NORMAL_TRIGGERED: 
DATABASE_VERSION: 
HEADER_FORMAT: DYNA 1.2
DATA_TYPE: Acceleration
PROCESSING: Manual Paolucci et al., 2011
DATA_TIMESTAMP_YYYYMMDD_HHMMSS: 
DATA_LICENSE: U (unknown license)
DATA_CITATION: Turkish Accelerometric Archive v 1.0 - Disaster And Emergency Management Presidency, Earthquake Department
DATA_CREATOR: AFAD
ORIGINAL_DATA_MEDIATOR_CITATION: : AFAD - Disaster And Emergency Management Presidency
ORIGINAL_DATA_MEDIATOR: AFAD PROCESS SERVICE
ORIGINAL_DATA_CREATOR_CITATION: AFAD PROCESS SERVICE
ORIGINAL_DATA_CREATOR: network: TK
USER1: GuestUser
USER2: 
USER3: 
USER4: 
USER5: 
-0.014000
0.026000
-0.026000
-0.001000
0.027000
0.000000
0.013000
-0.005000
-0.007000
-0.017000
-0.012000
0.055000
-0.041000
-0.015000
-0.006000
0.007000
0.027000
0.004000
-0.013000
0.010000
-0.006000
0.024000
0.013000
0.032000
-0.011000
0.008000
0.084000
-0.105000
0.093000
-0.056000
0.092000
-0.075000
0.068000
-0.088000
0.113000
-0.128000
0.090000
-0.092000
0.086000
-0.096000
0.057000
-0.067000
0.041000
-0.101000
0.060000
-0.102000
0.127000
-0.115000
0.079000
-0.076000
0.093000
-0.103000
0.074000
-0.091000
0.112000
-0.076000
0.025000
0.006000
-0.010000
0.002000
-0.007000
0.014000
0.014000
0.030000
0.001000
-0.026000
0.004000
0.000000
0.010000
0.002000
0.018000
0.012000
0.031000
0.021000
-0.051000
0.004000
0.052000
0.007000
-0.043000
-0.002000
0.000000
0.033000
0.022000
-0.005000
-0.006000
0.000000
-0.065000
0.110000
-0.060000
0.054000
-0.089000
0.074000
-0.076000
0.114000
-0.069000
0.091000
-0.071000
0.063000
-0.045000
0.038000
-0.074000
0.111000
-0.095000
0.102000
-0.082000
0.076000
-0.083000
0.070000
-0.090000
0.090000
-0.091000
0.083000
-0.115000
0.122000
-0.058000
0.085000
-0.094000
0.068000
-0.013000
-0.013000
0.030000
-0.023000
0.023000
-0.033000
0.025000
-0.002000
0.000000
0.004000
0.028000
-0.021000
-0.007000
0.000000
0.013000
-0.008000
-0.020000
-0.011000
0.004000
-0.037000
0.031000
-0.025000
0.013000
-0.034000
0.012000
-0.018000
0.032000
-0.023000
0.013000
0.044000
0.117000
-0.075000
0.075000
-0.054000
0.083000
-0.093000
0.067000
-0.070000
0.119000
-0.124000
0.058000
-0.084000
0.111000
-0.098000
0.098000
-0.112000
0.092000
-0.086000
0.115000
-0.087000
0.103000
-0.105000
0.053000
-0.074000
0.097000
-0.080000
0.084000
-0.127000
0.120000
-0.153000
-7.725000
0.045000
-0.051000
0.021000
-0.012000
0.055000
-0.018000
0.000000
-0.036000
0.007000
0.002000
0.029000
-0.044000
0.013000
0.007000
-0.002000
-0.019000
0.024000
-0.025000
0.048000
-0.007000
0.033000
-0.038000
0.005000
-0.026000
0.060000
-0.044000
0.045000
-0.017000
-0.001000
0.005000
0.056000
-0.080000
0.093000
-0.103000
0.110000
-0.065000
0.096000
-0.084000
0.037000
-0.088000
0.085000
-0.062000
0.086000
-0.043000
0.102000
-0.089000
0.099000
-0.112000
0.097000
-0.077000
0.133000
-0.086000
0.082000
-0.090000
0.151000
-0.060000
0.051000
-0.110000
0.130000
-0.065000
-7.749000
0.031000
0.000000
0.009000
-0.005000
0.039000
-0.034000
0.021000
-0.032000
0.012000
-0.003000
0.049000
-0.026000
-0.027000
-0.032000
0.011000
-0.017000
0.041000
-0.032000
0.063000
-0.070000
0.027000
-0.021000
0.016000
-0.044000
0.033000
-0.016000
0.059000
-0.020000
0.032000
-0.030000
0.068000
-0.084000
0.096000
-0.124000
0.103000
-0.075000
0.096000
-0.127000
0.115000
-0.093000
0.094000
-0.104000
0.131000
-0.090000
0.093000
-0.117000
0.093000
-0.100000
0.075000
-0.101000
0.134000
-0.108000
0.078000
-0.055000
0.078000
-0.063000
0.062000
-0.076000
0.109000
-0.082000
-0.041000
0.038000
-0.023000
0.026000
0.012000
0.033000
-0.011000
0.021000
-0.018000
0.028000
-0.038000
0.071000
-0.034000
0.063000
-0.030000
0.059000
0.000000
0.031000
-0.008000
0.074000
-0.056000
0.072000
-0.014000
0.024000
-0.019000
0.038000
-0.010000
0.032000
-0.046000
0.085000
-0.050000
0.144000
-0.094000
0.075000
-0.052000
0.072000
-0.082000
0.098000
-0.066000
0.045000
-0.052000
0.041000
-0.072000
0.069000
-0.097000
0.139000
-0.095000
0.074000
-0.066000
0.082000
-0.107000
0.102000
-0.059000
0.076000
-0.076000
0.119000
-0.108000
0.087000
-0.080000
0.077000
-0.072000
0.073000
0.025000
-0.024000
0.006000
-0.047000
0.047000
-0.052000
0.018000
-0.057000
0.072000
-0.065000
0.010000
-0.044000
0.068000
-0.062000
0.045000
-0.039000
0.047000
-0.010000
0.061000
-0.054000
0.075000
-0.026000
0.073000
-0.049000
0.047000
-0.040000
0.056000
-0.029000
0.046000
-0.036000
0.095000
-0.075000
0.041000
-0.035000
0.125000
-0.099000
0.090000
-0.078000
0.070000
-0.069000
0.086000
-0.028000
0.081000
-0.098000
0.093000
-0.065000
0.055000
-0.088000
0.070000
-0.114000
0.115000
-0.079000
0.068000
-0.102000
0.091000
-0.058000
0.101000
-0.084000
0.062000
-0.074000
0.121000
0.017000
-0.077000
0.096000
-0.045000
0.052000
-0.032000
0.049000
-0.037000
0.060000
-0.031000
0.039000
-0.065000
0.019000
-0.036000
0.043000
-0.033000
0.055000
-0.056000
0.012000
-0.085000
0.022000
-0.035000
0.064000
-0.033000
0.012000
-0.050000
0.057000
-0.009000
0.015000
-0.007000
0.047000
-0.062000
0.093000
-0.067000
0.069000
-0.086000
0.101000
-0.046000
0.096000
-0.088000
0.092000
-0.125000
0.083000
-0.053000
0.093000
-0.120000
0.072000
-0.053000
0.035000
-0.094000
0.107000
-0.119000
0.084000
-0.084000
0.062000
-0.104000
0.097000
-0.081000
0.046000
-0.100000
0.127000
0.052000
-0.018000
0.033000
-0.043000
0.073000
-0.082000
0.072000
-0.069000
0.049000
-0.039000
0.034000
-0.078000
0.034000
-0.125000
-0.046000
-0.191000
-0.140000
-0.322000
-0.325000
-0.593000
-0.601000
-0.717000
-0.568000
-0.402000
-0.096000
0.182000
1.032000
1.998000
2.789000
2.648000
2.017000
1.314000
0.286000
-1.260000
-3.130000
-5.977000
-7.284000
-4.663000
-1.633000
-0.287000
1.427000
1.342000
-0.118000
-2.376000
-4.228000
-10.048000
-17.678000
-20.539000
-22.290000
-25.865000
-17.833000
-5.887000
-3.760000
-10.736000
-2.835000
8.156000
-0.095000
-10.379000
-11.180000
-14.591000
-28.117000
-28.053000
-19.223000
-5.671000
-2.241000
6.543000
16.332000
27.237000
23.562000
7.203000
-13.996000
-24.922000
-18.883000
2.512000
-3.301000
-15.807000
-15.142000
-0.702000
6.679000
-4.532000
-5.258000
0.384000
-8.525000
-11.920000
0.695000
14.311000
2.102000
-34.941000
-48.048000
-30.525000
-30.511000
-35.615000
-32.891000
-17.183000
-9.930000
-16.957000
-17.509000
0.330000
-24.693000
-50.970000
-26.994000
7.097000
2.253000
-13.572000
-11.083000
-27.509000
-39.424000
-32.106000
-16.954000
-15.519000
-9.192000
18.938000
48.362000
46.556000
3.115000
-27.186000
-12.099000
-12.460000
-36.361000
-32.700000
-22.271000
-16.778000
-8.337000
4.537000
23.417000
35.015000
13.124000
16.632000
11.791000
1.848000
2.968000
-7.179000
-12.805000
-5.477000
5.796000
10.289000
18.834000
20.106000
32.958000
36.535000
8.626000
-9.475000
-22.377000
-29.846000
-38.997000
-43.861000
-9.529000
19.825000
12.722000
9.054000
26.154000
23.778000
-11.476000
-33.714000
-57.899000
-45.231000
-31.252000
-33.568000
-29.696000
-12.617000
0.037000
-1.194000
-0.955000
8.582000
13.325000
1.895000
2.686000
18.559000
26.042000
17.093000
8.448000
29.091000
45.753000
28.821000
28.291000
47.055000
51.073000
30.104000
7.792000
6.456000
6.987000
-1.692000
-6.095000
-6.074000
-8.214000
-14.937000
-10.721000
2.281000
8.252000
1.686000
6.288000
5.002000
4.848000
-3.395000
-11.289000
-8.801000
-14.709000
-6.575000
10.004000
9.608000
2.590000
1.009000
8.808000
-0.263000
-14.220000
-10.179000
-7.218000
-11.876000
-27.986000
-33.069000
-15.928000
-17.837000
-14.464000
-5.283000
-5.059000
-5.708000
-6.346000
9.986000
26.046000
25.219000
30.100000
27.330000
19.920000
12.563000
10.868000
13.593000
0.248000
-9.379000
-2.459000
3.075000
4.626000
6.418000
5.375000
4.306000
-0.551000
1.980000
9.839000
19.912000
10.165000
12.367000
16.309000
9.457000
6.388000
-3.303000
-2.152000
6.720000
4.641000
-6.778000
-10.461000
-13.111000
-6.454000
-11.069000
-29.348000
-26.689000
-26.378000
-29.202000
-32.357000
-15.654000
16.783000
31.039000
37.089000
41.471000
50.203000
48.321000
52.246000
50.837000
38.940000
24.014000
19.649000
19.693000
19.618000
21.900000
5.527000
2.819000
9.684000
17.704000
28.075000
23.457000
9.655000
7.049000
-10.685000
-31.605000
-40.987000
-44.363000
-48.648000
-53.535000
-43.305000
-33.298000
-34.072000
-33.454000
-10.647000
11.024000
-2.107000
8.086000
26.718000
19.787000
2.177000
2.397000
11.716000
2.669000
-13.745000
-27.858000
-9.511000
-8.845000
-17.638000
-8.311000
7.025000
19.479000
20.222000
23.647000
23.107000
9.996000
-3.647000
1.177000
-0.014000
-0.056000
-8.256000
-7.912000
-0.597000
-7.260000
1.180000
9.554000
7.001000
17.799000
15.155000
23.555000
9.866000
-12.619000
-5.236000
-1.728000
14.754000
18.477000
6.071000
8.277000
20.667000
18.472000
15.644000
-2.243000
-6.691000
16.994000
21.719000
10.679000
25.247000
35.592000
18.490000
-0.966000
-18.140000
-10.979000
-3.405000
-8.109000
7.736000
23.408000
-0.158000
-10.193000
17.173000
19.423000
-2.023000
-15.963000
-7.308000
17.769000
11.811000
0.682000
5.013000
5.463000
-10.374000
-6.882000
14.475000
15.663000
17.836000
15.700000
18.687000
28.731000
35.565000
21.944000
11.465000
-6.853000
-1.144000
-9.898000
-16.815000
-1.096000
21.131000
53.148000
43.592000
45.468000
46.913000
36.882000
35.316000
32.831000
36.180000
49.089000
56.406000
40.989000
33.697000
38.606000
43.872000
50.573000
30.255000
29.981000
62.857000
60.622000
40.540000
38.175000
44.321000
45.321000
31.354000
8.857000
34.760000
62.262000
29.683000
12.911000
10.933000
2.531000
-1.925000
-18.023000
-16.071000
5.104000
20.665000
30.127000
30.860000
37.917000
32.474000
21.347000
15.032000
-0.048000
-29.397000
-77.826000
-67.242000
-56.319000
-50.573000
-38.536000
-48.737000
-44.931000
-51.896000
-62.913000
-36.401000
-15.201000
-8.029000
-9.274000
2.949000
16.364000
23.700000
10.422000
-13.895000
-18.543000
-1.379000
5.711000
-21.410000
-17.939000
7.730000
6.792000
-13.721000
-48.477000
-53.905000
-31.462000
-39.411000
-52.887000
-67.253000
-63.072000
-36.603000
-62.355000
-93.908000
-71.269000
-68.886000
-77.478000
-83.621000
-103.339000
-119.465000
-104.008000
-114.120000
-137.865000
-109.226000
-67.718000
-59.228000
-57.259000
-64.092000
-54.471000
-57.197000
-76.868000
-92.889000
-91.926000
-77.878000
-75.265000
-74.904000
-33.764000
9.456000
23.549000
40.772000
49.409000
62.158000
90.358000
111.469000
136.463000
167.265000
166.589000
146.392000
147.466000
157.590000
154.651000
166.218000
147.607000
116.892000
95.697000
81.728000
74.397000
79.969000
64.152000
71.304000
83.828000
67.825000
86.015000
99.514000
113.316000
127.592000
120.111000
105.611000
110.126000
126.395000
120.480000
107.249000
103.793000
105.461000
104.086000
108.564000
116.445000
132.426000
117.603000
91.702000
19.742000
-59.155000
-104.220000
-112.461000
-121.983000
-118.294000
-135.998000
-162.227000
-180.771000
-195.549000
-209.298000
-204.220000
-175.711000
-154.449000
-147.886000
-146.360000
-138.984000
-112.825000
-61.043000
-23.079000
-26.302000
-29.385000
-4.104000
17.714000
17.225000
-0.977000
-13.684000
-22.624000
-55.551000
-94.058000
-120.225000
-126.035000
-132.925000
-172.283000
-200.665000
-226.681000
-258.588000
-266.037000
-277.932000
-317.134000
-329.248000
-335.665000
-354.737000
-367.183000
-366.651000
-364.756000
-359.622000
-348.872000
-328.594000
-297.101000
-271.073000
-248.618000
-212.135000
-146.802000
-35.322000
63.966000
84.872000
82.014000
84.363000
78.902000
136.796000
195.086000
176.034000
227.020000
338.144000
447.628000
545.435000
640.650000
724.298000
805.878000
804.945000
748.033000
699.440000
536.936000
317.510000
151.605000
167.034000
296.580000
347.923000
310.438000
231.294000
199.579000
199.587000
238.345000
312.341000
294.974000
244.190000
225.550000
238.869000
279.554000
293.344000
288.888000
241.692000
208.916000
188.395000
121.941000
72.445000
65.801000
74.521000
43.706000
-10.252000
-39.269000
-52.996000
-75.935000
-106.630000
-156.443000
-219.173000
-274.230000
-310.451000
-337.079000
-390.259000
-455.008000
-473.678000
-448.228000
-434.894000
-449.241000
-477.791000
-459.928000
-430.381000
-364.738000
-334.364000
-322.899000
-293.433000
-248.848000
-190.503000
-119.978000
-57.457000
6.801000
88.860000
128.895000
119.892000
106.606000
89.775000
81.029000
82.635000
101.155000
114.371000
96.713000
72.154000
52.649000
33.348000
75.371000
134.247000
152.137000
154.173000
145.826000
106.120000
56.880000
-2.882000
-38.772000
-100.168000
-120.482000
-119.027000
-140.394000
-172.238000
-196.701000
-221.574000
-237.812000
-239.759000
-227.352000
-204.713000
-190.573000
-188.982000
-171.667000
-129.568000
-89.480000
-61.778000
-33.489000
-4.153000
11.209000
18.491000
33.697000
36.541000
10.878000
-6.786000
31.024000
66.694000
58.476000
24.731000
6.929000
-1.861000
14.547000
6.557000
-30.671000
-44.753000
-20.233000
6.429000
0.950000
-26.102000
-48.217000
-33.734000
-20.049000
-34.213000
-39.452000
-35.583000
-22.563000
-9.075000
-10.648000
-9.632000
-10.927000
-14.692000
-10.073000
24.034000
41.872000
35.285000
40.093000
75.855000
106.518000
110.589000
107.666000
113.017000
114.338000
111.586000
110.783000
88.643000
78.902000
80.930000
82.909000
77.919000
69.340000
69.811000
76.214000
83.801000
95.301000
105.072000
105.441000
109.834000
87.077000
58.510000
49.498000
59.457000
52.876000
34.074000
16.314000
7.790000
14.835000
8.783000
-15.885000
-16.132000
-6.556000
-22.959000
-33.917000
-44.342000
-34.575000
-34.142000
-43.922000
-68.064000
-89.150000
-80.557000
-84.405000
-108.491000
-116.027000
-114.366000
-112.123000
-112.309000
-116.862000
-124.973000
-135.454000
-136.216000
-131.631000
-124.288000
-117.280000
-107.513000
-91.880000
-81.625000
-74.368000
-61.736000
-47.915000
-28.160000
-13.052000
-15.015000
-17.114000
-1.268000
29.993000
48.731000
55.260000
69.375000
79.191000
94.618000
108.855000
114.235000
129.518000
153.094000
166.378000
165.182000
160.972000
172.367000
188.728000
188.663000
178.797000
177.014000
178.645000
176.031000
175.978000
189.496000
205.381000
191.804000
148.108000
116.794000
106.220000
80.991000
41.438000
28.282000
19.716000
25.209000
37.011000
40.214000
19.742000
-1.776000
-29.270000
-39.116000
-9.432000
1.479000
-3.278000
-10.064000
0.851000
22.415000
33.465000
21.534000
8.205000
18.331000
12.947000
-5.021000
-28.280000
-48.694000
-55.717000
-60.728000
-79.244000
-103.637000
-118.858000
-114.562000
-118.410000
-130.405000
-148.961000
-151.695000
-143.099000
-122.026000
-109.749000
-112.425000
-105.411000
-87.005000
-80.199000
-92.503000
-66.975000
-74.686000
-108.392000
-85.586000
-102.208000
-75.305000
-86.297000
-84.089000
-73.470000
-71.584000
-75.827000
-75.493000
-57.266000
-28.704000
-13.721000
-0.945000
9.700000
22.290000
34.369000
36.541000
35.968000
40.754000
40.201000
21.441000
18.293000
30.361000
34.711000
46.402000
50.368000
40.351000
6.419000
-16.128000
-19.721000
-13.934000
-15.116000
-47.137000
-59.264000
-36.150000
-38.741000
-45.021000
-35.242000
-34.155000
-13.688000
4.712000
6.622000
13.626000
2.636000
0.714000
36.738000
15.856000
-4.051000
-12.323000
-45.308000
-70.161000
-67.604000
-63.793000
-61.464000
-69.436000
-91.214000
-60.998000
-51.170000
-41.482000
-29.922000
-35.189000
-29.465000
-3.182000
7.881000
-0.491000
6.116000
33.264000
41.480000
41.951000
40.784000
38.142000
45.764000
52.680000
50.635000
40.122000
28.357000
33.034000
33.504000
25.665000
24.446000
24.234000
22.355000
15.793000
2.339000
-0.369000
15.292000
17.529000
4.697000
2.381000
5.006000
6.960000
10.196000
18.520000
29.348000
18.497000
50.184000
71.258000
62.157000
87.122000
73.030000
70.766000
98.207000
91.216000
96.524000
103.479000
94.371000
105.856000
94.812000
73.678000
40.676000
28.138000
26.692000
46.395000
51.114000
39.070000
25.455000
31.798000
45.147000
52.982000
54.351000
63.298000
75.527000
75.265000
62.693000
66.914000
72.487000
56.453000
50.519000
52.352000
41.414000
23.504000
13.909000
19.186000
25.034000
16.531000
6.867000
4.900000
7.316000
11.350000
12.613000
11.448000
10.928000
11.164000
7.536000
5.392000
-1.126000
-11.750000
-20.443000
-19.875000
-19.099000
-24.518000
-31.450000
-34.345000
-41.780000
-51.907000
-48.466000
-45.294000
-50.272000
-51.329000
-54.129000
-60.273000
-60.829000
-59.508000
-51.398000
-45.376000
-45.582000
-43.945000
-36.841000
-27.022000
-12.484000
3.916000
9.885000
17.091000
22.400000
25.649000
24.642000
23.933000
20.494000
13.598000
6.543000
-0.333000
-2.639000
-3.156000
-6.262000
-10.567000
-7.867000
3.827000
12.574000
16.861000
21.572000
28.334000
26.907000
18.164000
9.357000
0.405000
-13.846000
-31.282000
-42.116000
-37.646000
-30.354000
-33.256000
-38.179000
-42.986000
-34.973000
-32.793000
-48.826000
-56.232000
-56.316000
-60.770000
-65.266000
-70.554000
-73.398000
-68.475000
-72.095000
-79.158000
-73.197000
-66.653000
-62.170000
-60.507000
-57.384000
-58.774000
-63.611000
-64.464000
-63.596000
-63.558000
-68.793000
-70.461000
-63.367000
-62.609000
-60.244000
-57.047000
-54.716000
-41.778000
-35.432000
-37.262000
-30.625000
-23.340000
-20.429000
-16.620000
-13.083000
-15.015000
-24.942000
-29.240000
-22.703000
-17.172000
-18.363000
-25.964000
-29.310000
-23.359000
-20.181000
-26.959000
-34.446000
-32.620000
-29.518000
-29.849000
-31.385000
-34.591000
-27.146000
-9.614000
-1.962000
-4.233000
-3.016000
4.065000
11.571000
18.284000
16.250000
13.744000
19.575000
17.804000
10.450000
8.725000
8.676000
6.885000
0.264000
-6.353000
-0.431000
12.105000
14.852000
17.225000
30.767000
42.695000
46.238000
51.203000
58.781000
63.462000
70.568000
75.056000
71.453000
67.743000
75.317000
83.258000
80.816000
74.964000
72.283000
69.639000
70.847000
67.175000
58.496000
53.697000
50.581000
49.518000
45.039000
40.999000
41.471000
36.768000
30.712000
29.294000
23.145000
12.189000
2.203000
-5.672000
-5.936000
-1.156000
-7.107000
-9.485000
1.000000
7.449000
7.545000
9.722000
21.114000
37.097000
40.962000
37.623000
38.362000
47.431000
61.716000
72.587000
76.590000
77.475000
76.843000
71.001000
58.218000
49.889000
49.013000
40.510000
28.274000
18.971000
12.908000
10.520000
6.180000
3.279000
1.567000
-3.416000
-7.226000
-4.493000
-1.430000
-2.703000
-4.557000
-5.470000
-3.582000
-2.013000
-8.930000
-8.674000
-4.093000
6.588000
11.313000
12.912000
19.121000
26.830000
32.824000
35.520000
30.142000
25.453000
23.856000
16.316000
5.118000
-5.995000
-18.337000
-27.251000
-27.780000
-31.428000
-38.433000
-41.918000
-40.427000
-36.534000
-38.069000
-43.803000
-47.404000
-51.591000
-52.932000
-53.889000
-61.129000
-68.089000
-70.697000
-70.607000
-67.708000
-64.384000
-56.936000
-42.605000
-22.017000
-3.248000
7.558000
17.943000
32.268000
48.449000
60.377000
63.854000
59.428000
56.804000
60.098000
61.704000
54.109000
36.832000
20.895000
8.161000
-6.309000
-16.091000
-22.322000
-25.530000
-29.945000
-39.549000
-43.466000
-42.381000
-39.955000
-41.667000
-42.693000
-37.211000
-23.567000
-13.990000
-2.833000
11.933000
30.602000
49.955000
64.051000
71.994000
74.214000
80.264000
88.482000
83.328000
77.941000
78.486000
75.401000
64.706000
48.669000
30.747000
16.626000
