EVENT_NAME: 199911121657
EVENT_ID: 997
EVENT_DATE_YYYYMMDD: 1999/11/12
EVENT_TIME_HHMMSS: 16:57:21.41
EVENT_LATITUDE_DEGREE: 40.806
EVENT_LONGITUDE_DEGREE: 31.187
EVENT_DEPTH_KM: 11.0
HYPOCENTER_REFERENCE: AFAD
MAGNITUDE_W: 
MAGNITUDE_W_REFERENCE: 
MAGNITUDE_L: 
MAGNITUDE_L_REFERENCE: 
FOCAL_MECHANISM: 
NETWORK: TK
STATION_CODE: 1401
STATION_NAME: 
STATION_LATITUDE_DEGREE: 40.74567
STATION_LONGITUDE_DEGREE: 31.60732
STATION_ELEVATION_M: 746.0
LOCATION: BOLU_MERKEZ_BAYINDIRLIK_VE_ISKAN_MUDURLUGU
SENSOR_DEPTH_M: 
VS30_M/S: 294
SITE_CLASSIFICATION_EC8: C
MORPHOLOGIC_CLASSIFICATION: 
EPICENTRAL_DISTANCE_KM: 36.02
EARTHQUAKE_BACKAZIMUTH_DEGREE: 
DATE_TIME_FIRST_SAMPLE_YYYYMMDD_HHMMSS: 12/11/1999 16:57:22.00000
DATE_TIME_FIRST_SAMPLE_PRECISION: millisecond
SAMPLING_INTERVAL_S: 0.01
NDATA: 5590
DURATION_S: 
STREAM: HNZ
UNITS: cm/s^2
INSTRUMENT: sensor = GSR-18 | digitizer = 
INSTRUMENT_ANALOG/DIGITAL: 
INSTRUMENTAL_FREQUENCY_HZ: 
INSTRUMENTAL_DAMPING: 
FULL_SCALE_G: 
N_BIT_DIGITAL_CONVERTER: 
PGA_CM/S^2: 200.130
TIME_PGA_S: 
BASELINE_CORRECTION: BASELINE REMOVED
FILTER_TYPE: BUTTERWORTH
FILTER_ORDER: 
LOW_CUT_FREQUENCY_HZ: 
HIGH_CUT_FREQUENCY_HZ: 
LATE/NORMAL_TRIGGERED: 
DATABASE_VERSION: 
HEADER_FORMAT: DYNA 1.2
DATA_TYPE: Acceleration
PROCESSING: Manual Paolucci et al., 2011
DATA_TIMESTAMP_YYYYMMDD_HHMMSS: 
DATA_LICENSE: U (unknown license)
DATA_CITATION: Turkish Accelerometric Archive v 1.0 - Disaster And Emergency Management Presidency, Earthquake Department
DATA_CREATOR: AFAD
ORIGINAL_DATA_MEDIATOR_CITATION: : AFAD - Disaster And Emergency Management Presidency
ORIGINAL_DATA_MEDIATOR: AFAD PROCESS SERVICE
ORIGINAL_DATA_CREATOR_CITATION: AFAD PROCESS SERVICE
ORIGINAL_DATA_CREATOR: network: TK
USER1: GuestUser
USER2: 
USER3: 
USER4: 
USER5: 
0.064000
-0.021000
0.044000
-0.021000
0.009000
-0.006000
0.036000
-0.011000
0.037000
-0.016000
0.069000
-0.062000
0.039000
-0.042000
0.066000
0.011000
0.026000
-0.060000
0.059000
-0.034000
0.046000
-0.032000
0.023000
-0.034000
0.071000
-0.025000
0.118000
-0.073000
0.096000
-0.144000
0.103000
-0.093000
0.146000
-0.086000
0.087000
-0.128000
0.120000
-0.109000
0.138000
-0.124000
0.110000
-0.072000
0.104000
-0.115000
0.113000
-0.090000
0.121000
-0.098000
0.077000
-0.066000
0.092000
-0.057000
0.081000
-0.042000
0.084000
-0.104000
-0.031000
0.069000
-0.029000
0.068000
-0.038000
0.039000
-0.017000
0.104000
-0.038000
0.026000
0.000000
0.059000
-0.036000
0.085000
-0.082000
0.061000
-0.067000
0.099000
-0.037000
0.053000
-0.036000
0.078000
-0.037000
0.055000
-0.011000
0.047000
-0.009000
0.044000
-0.037000
0.077000
-0.083000
0.106000
-0.097000
0.095000
-0.075000
0.119000
-0.077000
0.096000
-0.087000
0.099000
-0.083000
0.107000
-0.061000
0.101000
-0.100000
0.096000
-0.101000
0.120000
-0.099000
0.100000
-0.078000
0.073000
-0.073000
0.104000
-0.103000
0.076000
-0.132000
0.107000
-0.091000
0.112000
-0.091000
0.120000
0.069000
-0.026000
0.079000
-0.065000
0.071000
-0.062000
0.078000
-0.048000
0.074000
-0.060000
0.091000
-0.061000
0.013000
-0.066000
0.070000
-0.051000
0.064000
-0.050000
0.083000
-0.065000
0.100000
-0.057000
0.074000
-0.004000
0.053000
-0.062000
0.082000
-0.047000
0.067000
-0.047000
0.110000
-0.117000
0.092000
-0.105000
0.089000
-0.096000
0.071000
-0.103000
0.093000
-0.094000
0.087000
-0.056000
0.080000
-0.091000
0.086000
-0.093000
0.084000
-0.085000
0.069000
-0.085000
0.096000
-0.052000
0.128000
-0.079000
0.083000
-0.103000
0.094000
-0.085000
0.119000
-0.086000
0.082000
0.086000
-0.049000
0.053000
-0.082000
0.101000
-0.084000
0.069000
-0.049000
0.125000
-0.089000
0.069000
-0.064000
0.051000
-0.069000
0.097000
-0.108000
0.086000
-0.052000
0.062000
-0.056000
0.104000
-0.064000
0.066000
-0.075000
0.093000
-0.088000
0.064000
-0.084000
0.042000
-0.035000
0.071000
-0.061000
0.110000
-0.088000
0.084000
-0.095000
0.071000
-0.046000
0.093000
-0.057000
0.072000
-0.072000
0.060000
-0.073000
0.094000
-0.062000
0.059000
-0.028000
0.107000
-0.100000
0.051000
-0.086000
0.086000
-0.049000
0.098000
-0.087000
0.108000
-0.087000
0.117000
-0.099000
0.092000
0.100000
-0.127000
0.073000
-0.064000
0.062000
-0.048000
0.069000
-0.082000
0.089000
-0.062000
0.081000
-0.094000
0.063000
-0.043000
0.100000
-0.077000
0.076000
-0.093000
0.049000
-0.061000
0.103000
-0.083000
0.095000
-0.064000
0.093000
-0.070000
0.096000
-0.103000
0.078000
-0.052000
0.061000
-0.091000
0.097000
-0.072000
0.077000
-0.096000
0.079000
-0.059000
0.095000
-0.063000
0.114000
-0.081000
0.068000
-0.081000
0.075000
-0.076000
0.110000
-0.059000
0.087000
-0.072000
0.050000
-0.079000
0.094000
-0.075000
0.091000
-0.074000
0.077000
-0.096000
0.106000
-0.042000
-0.039000
0.051000
-0.110000
0.118000
-0.122000
0.096000
-0.090000
0.082000
-0.090000
0.090000
-0.065000
0.109000
-0.086000
0.128000
-0.062000
0.092000
-0.082000
0.093000
-0.106000
0.126000
-0.072000
0.062000
-0.132000
0.117000
-0.072000
0.052000
-0.034000
0.101000
-0.098000
0.124000
-0.107000
0.097000
-0.038000
0.077000
-0.037000
0.068000
-0.073000
0.079000
-0.035000
0.055000
-0.089000
0.071000
-0.054000
0.089000
-0.085000
0.083000
-0.077000
0.070000
-0.053000
0.082000
-0.072000
0.078000
-0.032000
0.035000
-0.078000
0.078000
-0.059000
0.092000
-0.071000
0.091000
-0.106000
0.057000
0.091000
-0.110000
0.090000
-0.095000
0.056000
-0.070000
0.088000
-0.106000
0.069000
-0.052000
0.105000
-0.095000
0.055000
-0.084000
0.090000
-0.088000
0.056000
-0.066000
0.099000
-0.057000
0.065000
-0.124000
0.124000
-0.081000
0.087000
-0.100000
0.114000
-0.095000
0.075000
-0.082000
0.074000
-0.040000
0.056000
-0.065000
0.079000
-0.082000
0.051000
-0.059000
0.089000
-0.093000
0.096000
-0.073000
0.062000
-0.075000
0.086000
-0.056000
0.085000
-0.055000
0.081000
-0.057000
0.067000
-0.056000
0.082000
-0.060000
0.099000
-0.081000
0.099000
-0.026000
0.076000
-0.092000
0.047000
7.767000
-0.075000
0.091000
-0.072000
0.110000
-0.057000
0.058000
-0.083000
0.074000
-0.092000
0.116000
-0.088000
0.072000
-0.090000
0.082000
-0.069000
0.105000
-0.069000
0.116000
-0.091000
0.071000
-0.093000
0.134000
-0.080000
0.116000
-0.092000
0.076000
-0.090000
0.108000
-0.067000
0.077000
-0.107000
0.084000
-0.074000
0.096000
-0.072000
0.093000
-0.046000
0.062000
-0.059000
0.063000
-0.064000
0.066000
-0.062000
0.087000
-0.032000
0.053000
-0.046000
0.067000
-0.082000
0.080000
-0.036000
0.070000
-0.075000
0.069000
-0.068000
0.042000
-0.076000
0.062000
-0.068000
0.018000
0.078000
-0.102000
0.068000
-0.092000
0.098000
-0.083000
0.097000
-0.106000
0.069000
-0.104000
0.000000
-0.233000
-0.156000
-0.609000
-0.699000
-1.244000
-1.530000
-2.268000
-2.930000
-4.141000
-4.711000
-4.792000
-3.571000
-1.951000
0.731000
4.269000
10.733000
18.166000
22.938000
21.832000
16.724000
12.741000
3.438000
-9.491000
-27.394000
-46.618000
-52.650000
-40.260000
-26.308000
-20.201000
-13.752000
-10.396000
-13.896000
-19.999000
-31.244000
-58.663000
-87.891000
-107.232000
-129.688000
-135.923000
-90.546000
-30.899000
-12.198000
-5.879000
43.097000
86.258000
59.614000
16.639000
11.279000
-3.946000
-30.978000
-17.919000
1.486000
41.763000
80.102000
114.897000
136.089000
149.853000
119.051000
5.617000
-112.358000
-129.586000
-45.364000
36.160000
-1.014000
-83.195000
-99.473000
-63.870000
-40.770000
-26.563000
30.307000
90.762000
81.731000
50.107000
58.978000
71.914000
23.338000
-61.831000
-63.783000
24.144000
59.824000
14.065000
-17.084000
-84.618000
-144.359000
-130.862000
-34.243000
6.227000
-76.235000
-102.247000
0.634000
80.995000
58.745000
23.601000
24.431000
4.427000
-22.168000
-5.829000
0.012000
-42.277000
-45.575000
36.528000
140.640000
139.939000
29.625000
-27.863000
15.824000
50.487000
42.971000
29.884000
15.497000
31.245000
40.440000
17.690000
-9.838000
5.342000
46.938000
95.563000
81.740000
29.669000
-7.960000
-46.934000
-67.584000
-45.133000
-18.751000
-6.218000
8.506000
22.679000
39.644000
12.355000
-62.731000
-95.603000
-49.155000
21.277000
27.253000
-12.122000
2.795000
34.219000
34.469000
40.697000
71.250000
89.513000
72.832000
44.035000
40.590000
65.187000
77.538000
21.992000
-23.315000
-11.641000
-7.725000
-25.470000
-28.677000
-18.433000
-10.759000
-19.878000
-19.461000
11.205000
27.908000
6.142000
0.297000
43.783000
44.525000
-20.706000
-40.434000
-22.752000
-34.928000
-62.361000
-56.592000
-14.253000
14.864000
7.030000
-5.993000
-4.099000
-0.202000
1.328000
-13.660000
-33.392000
-53.433000
-42.535000
4.253000
20.308000
4.373000
-7.205000
-9.450000
-15.342000
-18.264000
21.502000
61.976000
44.218000
6.898000
8.849000
26.450000
1.532000
-29.697000
-3.960000
39.165000
42.881000
-3.225000
-32.094000
-25.031000
-21.518000
-3.345000
7.791000
-0.116000
-17.429000
3.102000
38.372000
21.202000
-11.559000
-13.506000
-18.311000
-25.264000
-16.468000
0.793000
10.775000
-8.943000
-31.821000
-30.246000
-17.316000
3.532000
18.691000
11.068000
-14.952000
-40.478000
-56.339000
-56.317000
-53.208000
-59.351000
-38.359000
-9.331000
-3.544000
-4.102000
0.991000
25.782000
61.544000
63.957000
35.868000
9.750000
3.509000
-4.352000
-39.026000
-53.408000
-6.229000
33.421000
10.098000
-23.532000
-8.898000
28.892000
29.167000
-6.601000
-33.289000
-35.869000
-8.539000
51.157000
64.374000
20.380000
-0.023000
15.781000
22.300000
21.926000
2.684000
-39.956000
-59.272000
-42.114000
-19.429000
-17.180000
-18.757000
-1.275000
23.712000
10.521000
-20.858000
-32.794000
-32.830000
-34.590000
-14.593000
31.762000
38.103000
-7.216000
-26.904000
7.706000
7.420000
-13.176000
28.256000
64.283000
22.115000
-27.731000
-27.549000
-24.559000
-43.736000
-45.929000
-3.974000
48.814000
47.760000
7.226000
-16.711000
-22.109000
-19.714000
21.516000
67.036000
77.489000
79.691000
93.822000
94.072000
44.326000
-13.521000
-53.918000
-55.436000
-44.812000
-45.213000
-30.480000
-33.791000
-53.344000
-53.968000
-29.125000
5.207000
-7.614000
-12.320000
26.815000
63.455000
79.233000
16.936000
-94.309000
-125.389000
-80.488000
-34.717000
-30.834000
-50.317000
-3.553000
76.243000
84.567000
40.651000
29.855000
63.394000
60.347000
10.734000
-35.688000
-67.623000
-78.137000
-31.600000
48.846000
48.026000
-24.535000
-14.356000
60.467000
33.583000
-69.613000
-109.218000
-47.898000
34.993000
43.524000
-9.361000
-53.608000
-80.112000
-90.024000
-49.097000
8.506000
44.903000
75.828000
80.194000
64.164000
54.507000
24.413000
-8.709000
-34.258000
-11.136000
63.482000
78.648000
33.995000
16.661000
59.905000
94.545000
71.598000
50.603000
41.153000
30.838000
22.509000
-22.144000
-63.684000
-21.910000
37.965000
18.690000
-21.086000
-13.565000
22.406000
15.325000
-65.506000
-84.178000
-4.114000
13.441000
-9.520000
9.744000
89.088000
109.146000
46.088000
18.040000
115.141000
200.130000
180.396000
115.901000
39.883000
-27.391000
-75.587000
-113.625000
-97.374000
-12.258000
92.553000
132.762000
80.585000
3.424000
-39.072000
1.592000
91.326000
124.920000
58.572000
-6.000000
7.064000
16.425000
11.004000
-3.479000
-22.781000
-34.473000
-40.750000
-38.500000
-11.815000
3.431000
23.910000
80.449000
141.495000
178.324000
168.476000
76.640000
-18.319000
-13.153000
51.270000
18.218000
-80.826000
-83.817000
-15.980000
26.737000
17.708000
-48.430000
-53.041000
18.805000
28.079000
-27.215000
-49.016000
20.369000
75.226000
24.671000
-29.651000
-27.575000
-15.413000
-4.627000
20.634000
8.274000
-6.449000
-17.265000
-60.144000
-50.482000
28.988000
69.447000
45.764000
21.192000
28.515000
48.158000
57.005000
49.187000
54.461000
89.510000
111.034000
54.537000
-4.800000
-2.551000
-28.816000
-77.214000
-57.833000
-5.491000
1.660000
-28.802000
-44.448000
-28.130000
-12.197000
-23.679000
-68.615000
-85.295000
-67.752000
-28.983000
33.931000
52.175000
14.833000
-5.750000
-8.533000
-12.229000
-19.635000
-7.393000
73.885000
148.787000
169.884000
182.668000
176.875000
140.934000
92.169000
26.596000
-44.890000
-89.331000
-114.876000
-153.773000
-187.937000
-177.281000
-144.018000
-125.098000
-82.384000
-46.758000
13.015000
44.505000
55.953000
3.654000
-65.635000
-68.371000
-33.535000
20.904000
86.006000
101.396000
63.126000
16.661000
-30.231000
-73.189000
-78.539000
-39.355000
-0.598000
-9.929000
-68.812000
-108.835000
-71.132000
2.477000
30.730000
-20.051000
-56.964000
-13.542000
37.275000
46.333000
47.286000
42.287000
32.657000
14.656000
21.417000
47.750000
83.502000
77.124000
35.472000
9.022000
-26.746000
-54.534000
-30.159000
-12.903000
8.215000
72.149000
104.649000
91.351000
85.577000
65.307000
3.627000
-38.799000
-38.032000
-48.671000
-97.858000
-142.591000
-164.723000
-165.056000
-157.883000
-169.603000
-178.625000
-116.563000
11.139000
52.171000
47.530000
33.019000
74.691000
62.699000
4.412000
-24.230000
-6.765000
10.608000
7.359000
-5.517000
-24.598000
-51.624000
-81.979000
-112.433000
-162.315000
-177.859000
-143.909000
-89.721000
-35.042000
30.168000
43.148000
-7.431000
-61.942000
-66.814000
-22.408000
26.530000
8.857000
-17.818000
18.325000
48.376000
86.133000
81.596000
55.626000
20.823000
6.183000
0.254000
-29.281000
-25.109000
13.982000
15.977000
-30.386000
-67.549000
-75.269000
-77.915000
-75.576000
-77.636000
-86.849000
-77.473000
-17.189000
79.627000
126.110000
82.737000
38.898000
53.604000
74.764000
46.765000
-22.249000
-59.195000
-2.287000
42.826000
102.145000
105.806000
127.137000
154.236000
140.719000
108.103000
54.376000
-9.554000
-43.128000
-69.814000
-102.068000
-96.697000
-33.396000
12.140000
-23.263000
-62.552000
-39.985000
-3.953000
28.509000
62.252000
60.272000
45.033000
84.508000
119.346000
97.657000
46.852000
-17.134000
-55.655000
-8.547000
58.468000
68.067000
43.773000
-0.026000
-40.483000
-54.128000
-26.371000
13.700000
18.267000
-24.803000
-58.630000
-20.360000
17.367000
-19.902000
-66.208000
-56.396000
-15.584000
28.621000
48.404000
23.190000
-11.609000
-6.299000
33.187000
58.720000
23.077000
-48.913000
-75.299000
-50.102000
-26.610000
-55.634000
-105.774000
-119.452000
-96.066000
-40.424000
-36.644000
-79.944000
-85.162000
-32.423000
0.292000
-21.391000
-43.309000
-44.395000
-35.958000
-22.912000
-23.738000
-47.105000
-63.978000
-75.349000
-88.237000
-83.200000
-71.272000
-62.210000
-26.047000
22.087000
22.192000
-15.675000
-11.079000
23.774000
39.618000
30.863000
-2.576000
-38.160000
-40.523000
-6.577000
20.285000
4.143000
-15.625000
-2.808000
20.037000
33.462000
45.402000
56.459000
46.983000
20.957000
7.760000
7.044000
18.990000
45.175000
35.487000
-15.149000
-35.598000
15.894000
69.506000
70.068000
49.088000
36.387000
54.171000
96.354000
98.300000
62.098000
65.447000
82.860000
41.433000
12.529000
-7.969000
13.673000
35.030000
36.175000
3.444000
-6.635000
30.697000
46.166000
29.626000
26.434000
30.010000
19.737000
14.055000
22.597000
24.496000
13.585000
3.271000
0.740000
-10.957000
-33.743000
-33.876000
-15.868000
-13.333000
-14.337000
-10.220000
-11.953000
-15.399000
-37.016000
-82.506000
-98.938000
-97.018000
-83.091000
-88.543000
-80.007000
-57.369000
-42.494000
-30.789000
-35.600000
-48.471000
-42.704000
-27.133000
-40.192000
-78.681000
-85.276000
-41.425000
-7.541000
-2.912000
23.059000
53.910000
31.942000
-14.259000
-30.626000
-15.145000
2.033000
-4.894000
-19.978000
-5.754000
18.612000
16.362000
-7.514000
-21.202000
-41.947000
-25.311000
21.560000
48.084000
30.868000
-20.733000
-63.434000
-48.800000
9.282000
32.980000
-4.982000
-53.592000
-47.101000
-5.960000
-2.207000
-29.953000
-53.721000
-35.784000
24.073000
54.361000
22.035000
-7.063000
-4.346000
-3.673000
-19.024000
-30.148000
-2.208000
44.177000
45.343000
30.455000
-25.860000
-50.367000
-26.751000
10.760000
5.810000
-28.330000
-29.889000
-2.425000
6.610000
-2.016000
16.607000
15.817000
-38.229000
-35.370000
-11.467000
-23.282000
-30.417000
-12.032000
1.797000
4.713000
-9.616000
-32.201000
-31.020000
-2.301000
14.792000
11.561000
9.999000
5.130000
-9.756000
-15.848000
-4.737000
28.842000
25.136000
-0.710000
-10.476000
-15.318000
-0.565000
48.581000
83.769000
72.470000
39.422000
19.172000
20.233000
30.834000
16.140000
-23.233000
-39.411000
-27.547000
-5.976000
40.716000
68.363000
44.767000
30.755000
35.511000
3.850000
-28.448000
-37.589000
-33.772000
-17.281000
22.120000
52.122000
84.062000
34.183000
-23.433000
4.823000
48.256000
49.949000
46.795000
30.500000
18.449000
36.098000
43.293000
-6.535000
-49.088000
-25.777000
13.272000
36.310000
45.539000
45.625000
40.071000
37.816000
23.755000
-10.669000
-34.782000
-32.031000
-15.081000
-5.557000
-10.046000
2.600000
21.508000
16.221000
4.851000
3.079000
3.469000
2.457000
-14.552000
-48.186000
-53.903000
-32.612000
-33.892000
-38.067000
-27.919000
-28.114000
-36.825000
-38.521000
-34.844000
-36.259000
-39.639000
-40.885000
-38.326000
-11.879000
-11.899000
-50.240000
-63.667000
-28.358000
-23.848000
-42.025000
-49.138000
-40.547000
-19.424000
-2.636000
-13.506000
-32.749000
-36.171000
-20.425000
13.189000
36.394000
33.164000
27.370000
38.152000
46.192000
40.178000
29.867000
25.740000
23.536000
8.213000
-10.072000
-13.082000
-9.904000
-6.974000
5.976000
19.321000
22.510000
14.469000
13.323000
37.269000
58.186000
51.176000
39.581000
39.177000
42.881000
36.227000
20.161000
12.373000
-0.591000
-7.727000
4.340000
26.859000
30.852000
12.309000
-2.880000
-3.207000
-2.279000
-8.441000
-13.490000
-18.716000
-28.188000
-23.170000
-1.965000
15.693000
31.584000
42.125000
32.945000
12.595000
-6.454000
-16.068000
-15.893000
-13.365000
-8.499000
-1.899000
-2.753000
-6.748000
-7.160000
-9.135000
-8.581000
3.147000
22.330000
26.144000
19.557000
19.135000
18.591000
15.975000
20.419000
31.695000
36.401000
26.500000
10.551000
5.708000
20.880000
37.408000
35.188000
25.347000
25.895000
26.556000
14.985000
5.609000
13.080000
27.378000
26.161000
10.747000
10.346000
26.959000
28.401000
7.181000
-2.857000
-2.677000
18.573000
24.446000
10.826000
2.169000
-2.852000
-8.319000
-6.842000
-1.053000
8.348000
13.309000
1.286000
-5.986000
3.303000
10.653000
11.894000
19.094000
27.592000
19.168000
4.676000
3.181000
3.295000
-10.973000
-21.704000
-8.013000
5.534000
2.284000
-4.780000
-2.661000
4.930000
20.334000
16.665000
7.317000
4.585000
-0.517000
2.699000
21.169000
31.782000
16.358000
-4.798000
-2.660000
23.527000
49.067000
48.482000
30.580000
23.640000
27.385000
19.786000
-2.265000
-15.528000
-8.033000
9.694000
20.547000
9.127000
-13.753000
-20.333000
-13.522000
-17.596000
-30.123000
-32.049000
-25.784000
-4.289000
8.876000
5.374000
6.139000
7.188000
-10.370000
-28.100000
-25.770000
-8.863000
0.284000
-11.158000
-20.625000
-9.653000
-2.037000
-10.912000
-13.582000
-3.887000
0.165000
-5.443000
-8.338000
-3.908000
8.304000
25.124000
31.745000
18.496000
4.816000
8.074000
11.861000
0.446000
-19.511000
-26.343000
-22.486000
-1.429000
11.106000
9.655000
5.367000
4.230000
5.756000
4.400000
4.151000
1.469000
-11.882000
-17.068000
-4.694000
2.207000
-7.841000
-24.322000
-26.198000
-0.933000
22.330000
22.748000
26.793000
36.081000
24.786000
-1.944000
-19.554000
-14.009000
-0.092000
-0.097000
-10.903000
-14.158000
-10.364000
-0.381000
4.090000
4.790000
11.119000
19.165000
11.076000
-7.720000
-9.921000
-7.164000
-21.567000
-36.948000
-39.194000
-33.856000
-25.859000
-15.227000
-2.946000
-3.588000
-18.744000
-22.627000
-6.169000
7.639000
8.375000
0.371000
-5.832000
-7.924000
-18.675000
-36.546000
-41.155000
-36.579000
-26.766000
-31.854000
-39.109000
-31.099000
-17.501000
-5.280000
2.355000
1.008000
-0.375000
2.967000
6.944000
10.896000
8.935000
1.148000
4.937000
17.687000
19.056000
7.215000
-0.098000
9.836000
24.086000
26.878000
21.788000
11.559000
3.662000
8.193000
14.493000
12.460000
9.853000
9.279000
1.919000
-4.110000
-11.717000
-10.397000
-3.939000
6.468000
11.706000
6.262000
2.808000
8.830000
13.519000
10.716000
1.430000
-9.717000
-7.108000
12.709000
27.290000
22.976000
19.975000
28.674000
26.604000
11.010000
-0.960000
-0.422000
11.734000
19.616000
15.857000
14.181000
15.493000
7.432000
-8.046000
-12.505000
-10.266000
-5.708000
-6.423000
-9.457000
-12.805000
-13.417000
-9.606000
-4.112000
-9.370000
-16.140000
-8.535000
-6.330000
-21.589000
-34.519000
-34.115000
-25.902000
-15.222000
-8.822000
-10.344000
-14.096000
-16.663000
-16.949000
-14.848000
-12.890000
-10.972000
-7.511000
-4.835000
-12.527000
-28.574000
-35.629000
-45.934000
-53.488000
